[{"OBJECT_NAME":"NETSAT-1","OBJECT_ID":"2020-068W","EPOCH":"2026-03-09T22:42:38.711232","MEAN_MOTION":15.32042482,"ECCENTRICITY":0.00057337,"INCLINATION":97.8751,"RA_OF_ASC_NODE":63.2583,"ARG_OF_PERICENTER":18.5877,"MEAN_ANOMALY":341.5572,"EPHEMERIS_TYPE":0,"CLASSIFICATION_TYPE":"U","NORAD_CAT_ID":46506,"ELEMENT_SET_NO":999,"REV_AT_EPOCH":30009,"BSTAR":0.00059222329,"MEAN_MOTION_DOT":0.00018269,"MEAN_MOTION_DDOT":0},{"OBJECT_NAME":"STARLINK-35433","OBJECT_ID":"2025-223S","EPOCH":"2026-03-09T20:35:57.256512","MEAN_MOTION":15.30228177,"ECCENTRICITY":9.071e-5,"INCLINATION":53.1583,"RA_OF_ASC_NODE":293.2368,"ARG_OF_PERICENTER":114.0354,"MEAN_ANOMALY":246.0741,"EPHEMERIS_TYPE":0,"CLASSIFICATION_TYPE":"U","NORAD_CAT_ID":65870,"ELEMENT_SET_NO":999,"REV_AT_EPOCH":2424,"BSTAR":0.0015415281,"MEAN_MOTION_DOT":0.00045617,"MEAN_MOTION_DDOT":0}]
